{
"type": "FeatureCollection",
"name": "fields_EPSG4326",
"crs": { "type": "name", "properties": { "name": "urn:ogc:def:crs:OGC:1.3:CRS84" } },
"features": [
{ "type": "Feature", "properties": { "field_id": "STORY-01", "source_id": "F070801050405_121", "grid_row": 0, "grid_col": 0, "area_ha": 13.301995316456715, "inside_fraction": 1.0 }, "geometry": { "type": "Polygon", "coordinates": [ [ [ -93.649665276886623, 42.177112131814681 ], [ -93.649699308794283, 42.176093008405445 ], [ -93.650484085333318, 42.17660822033816 ], [ -93.65118073899302, 42.176885759964883 ], [ -93.652510027171118, 42.177347358951501 ], [ -93.653979495424181, 42.179168684510401 ], [ -93.653984329482213, 42.179637809039974 ], [ -93.653989163605246, 42.180106933842069 ], [ -93.654010342826339, 42.180684456665865 ], [ -93.649701619672413, 42.180662463089924 ], [ -93.649681775902366, 42.178723951905795 ], [ -93.649665276886623, 42.177112131814681 ] ] ] } },
{ "type": "Feature", "properties": { "field_id": "STORY-02", "source_id": "F070801050402_76", "grid_row": 0, "grid_col": 1, "area_ha": 50.143503041752297, "inside_fraction": 1.0 }, "geometry": { "type": "Polygon", "coordinates": [ [ [ -93.54575046174817, 42.178766523077172 ], [ -93.555524232395712, 42.178543871409396 ], [ -93.555525319189314, 42.180681718699063 ], [ -93.555494984240539, 42.18778892690726 ], [ -93.550661840431829, 42.187829016198187 ], [ -93.550687906393904, 42.180749316874348 ], [ -93.54576699958109, 42.18077283324029 ], [ -93.545763568212593, 42.18035656643093 ], [ -93.54575046174817, 42.178766523077172 ] ] ] } },
{ "type": "Feature", "properties": { "field_id": "STORY-03", "source_id": "F070801050601_189", "grid_row": 0, "grid_col": 2, "area_ha": 75.492541796747773, "inside_fraction": 0.99999999999999989 }, "geometry": { "type": "Polygon", "coordinates": [ [ [ -93.450532859245996, 42.173928040397875 ], [ -93.462311078878429, 42.173837339092614 ], [ -93.462317619667616, 42.173849309048606 ], [ -93.46268522238536, 42.173847826695933 ], [ -93.462721485284234, 42.178543335665012 ], [ -93.462870718315898, 42.178645559655941 ], [ -93.461797798377034, 42.179204746881929 ], [ -93.460572580372215, 42.179885806323576 ], [ -93.459262951127855, 42.180512072110957 ], [ -93.458726409484726, 42.180786138347827 ], [ -93.458519804688251, 42.181054210115157 ], [ -93.458178420007357, 42.18106018535606 ], [ -93.457641566598127, 42.181073874432052 ], [ -93.450583380570336, 42.181098022886289 ], [ -93.450532859245996, 42.173928040397875 ] ] ] } },
{ "type": "Feature", "properties": { "field_id": "STORY-04", "source_id": "F070802070803_245", "grid_row": 0, "grid_col": 3, "area_ha": 15.637743001748845, "inside_fraction": 1.0 }, "geometry": { "type": "Polygon", "coordinates": [ [ [ -93.361441701374616, 42.177257838800855 ], [ -93.36144833014859, 42.173644046486935 ], [ -93.366136808988514, 42.173683884298079 ], [ -93.366140305467184, 42.174290092102488 ], [ -93.3662083588558, 42.175313566950187 ], [ -93.366211834645327, 42.175599157138123 ], [ -93.366218902474117, 42.177252307578563 ], [ -93.361441701374616, 42.177257838800855 ] ] ] } },
{ "type": "Feature", "properties": { "field_id": "STORY-05", "source_id": "F070802070803_337", "grid_row": 0, "grid_col": 4, "area_ha": 31.008549614619056, "inside_fraction": 1.0 }, "geometry": { "type": "Polygon", "coordinates": [ [ [ -93.260758796107609, 42.176675323871322 ], [ -93.260724596690679, 42.173221405104471 ], [ -93.263583746962865, 42.173238801279687 ], [ -93.264053219247756, 42.173241649240673 ], [ -93.269640127335691, 42.173275424262457 ], [ -93.27037643505976, 42.173279851362814 ], [ -93.270402648915294, 42.176830761385212 ], [ -93.260758796107609, 42.176675323871322 ] ] ] } },
{ "type": "Feature", "properties": { "field_id": "STORY-06", "source_id": "F070801050306_111", "grid_row": 1, "grid_col": 0, "area_ha": 15.01396706460247, "inside_fraction": 0.99999999999999978 }, "geometry": { "type": "Polygon", "coordinates": [ [ [ -93.654358169989834, 42.110463092842679 ], [ -93.654318728964782, 42.107002171868288 ], [ -93.658233669350935, 42.107028370807519 ], [ -93.659023502182151, 42.107047974221743 ], [ -93.659091228222067, 42.107100011590504 ], [ -93.65909791525614, 42.107890333642523 ], [ -93.659119415475729, 42.110433843036702 ], [ -93.654358169989834, 42.110463092842679 ] ] ] } },
{ "type": "Feature", "properties": { "field_id": "STORY-07", "source_id": "F070801050406_180", "grid_row": 1, "grid_col": 1, "area_ha": 35.916032101117381, "inside_fraction": 1.0000000000000002 }, "geometry": { "type": "Polygon", "coordinates": [ [ [ -93.560045207965516, 42.101436315546593 ], [ -93.559969501325057, 42.101586138736991 ], [ -93.559387047705599, 42.102528831051309 ], [ -93.558116280110781, 42.104657553317637 ], [ -93.557593705660665, 42.105172884905855 ], [ -93.557092196726956, 42.10541953104174 ], [ -93.556728698337778, 42.105601280682485 ], [ -93.556252876219858, 42.105860767225565 ], [ -93.55591686168124, 42.106079721600331 ], [ -93.555459365578784, 42.106459397391724 ], [ -93.555327230143504, 42.106557919066589 ], [ -93.555006047212132, 42.106679457505919 ], [ -93.550693358777579, 42.10670861091144 ], [ -93.550717674670864, 42.101430942786664 ], [ -93.560045207965516, 42.101436315546593 ] ] ] } },
{ "type": "Feature", "properties": { "field_id": "STORY-08", "source_id": "F070801050502_486", "grid_row": 1, "grid_col": 2, "area_ha": 24.463386573088581, "inside_fraction": 0.99999999999999978 }, "geometry": { "type": "Polygon", "coordinates": [ [ [ -93.462810397704928, 42.114226708901477 ], [ -93.462286957803428, 42.114232313593334 ], [ -93.458717480733654, 42.114248727964878 ], [ -93.458890007822134, 42.107134670255647 ], [ -93.461428802292033, 42.107092164981978 ], [ -93.461462520719692, 42.108361068124843 ], [ -93.462737665475359, 42.108365056722413 ], [ -93.462810397704928, 42.114226708901477 ] ] ] } },
{ "type": "Feature", "properties": { "field_id": "STORY-09", "source_id": "F070801050602_156", "grid_row": 1, "grid_col": 3, "area_ha": 7.6181931921161041, "inside_fraction": 1.0000000000000004 }, "geometry": { "type": "Polygon", "coordinates": [ [ [ -93.363347456337934, 42.103577300287384 ], [ -93.363341354587064, 42.103296596150912 ], [ -93.365758427839353, 42.103302103485653 ], [ -93.366014603635747, 42.10320238593448 ], [ -93.366550316536532, 42.103268981886345 ], [ -93.366543653335853, 42.103714229488254 ], [ -93.366517533633314, 42.105976516594509 ], [ -93.366470643255838, 42.106831462185205 ], [ -93.365266874726231, 42.106824131985107 ], [ -93.364467580416019, 42.106817685333951 ], [ -93.364489048283815, 42.105987939993916 ], [ -93.364517664586415, 42.104881609557381 ], [ -93.363868987207454, 42.104217972440345 ], [ -93.363347456337934, 42.103577300287384 ] ] ] } },
{ "type": "Feature", "properties": { "field_id": "STORY-10", "source_id": "F070802070802_59", "grid_row": 1, "grid_col": 4, "area_ha": 62.149071405107968, "inside_fraction": 1.0000000000000002 }, "geometry": { "type": "Polygon", "coordinates": [ [ [ -93.280408526187728, 42.100613247612735 ], [ -93.280354433954173, 42.101417305494898 ], [ -93.280357961743348, 42.102218297504479 ], [ -93.281202000423335, 42.103907231442257 ], [ -93.280368941318414, 42.104710269144853 ], [ -93.279293313553936, 42.104712892700839 ], [ -93.279302772149094, 42.106867762912522 ], [ -93.270814980092169, 42.10681220474212 ], [ -93.270812268831961, 42.099604250300985 ], [ -93.275540720486219, 42.099630253645053 ], [ -93.280400797358453, 42.099668908428178 ], [ -93.280408526187728, 42.100613247612735 ] ] ] } },
{ "type": "Feature", "properties": { "field_id": "STORY-11", "source_id": "F070801050307_12", "grid_row": 2, "grid_col": 0, "area_ha": 13.183578862422873, "inside_fraction": 1.0 }, "geometry": { "type": "Polygon", "coordinates": [ [ [ -93.654829220066205, 42.042371495157454 ], [ -93.654793012582772, 42.041834101856551 ], [ -93.657239659658927, 42.041828295248962 ], [ -93.658014700556052, 42.041826448097126 ], [ -93.658025419876878, 42.042865327414532 ], [ -93.658025926833645, 42.042914535847871 ], [ -93.658035500935043, 42.043842307409932 ], [ -93.659247839788904, 42.043846788585121 ], [ -93.659232329825926, 42.044491160330381 ], [ -93.659230388738095, 42.044572266158951 ], [ -93.659226374445893, 42.044739108677518 ], [ -93.659263484052161, 42.047573485388384 ], [ -93.659276514502523, 42.048568325323629 ], [ -93.658936216817011, 42.04852468874369 ], [ -93.658736607366606, 42.048514396360105 ], [ -93.65842804221765, 42.048356031242037 ], [ -93.658102232792388, 42.048014741610167 ], [ -93.657696774749482, 42.047387959952403 ], [ -93.657186147137949, 42.04623561670509 ], [ -93.656917150996009, 42.045447914569124 ], [ -93.656536039976373, 42.04420332035361 ], [ -93.656253953162647, 42.043633018519557 ], [ -93.655740648541624, 42.042961083607494 ], [ -93.654829220066205, 42.042371495157454 ] ] ] } },
{ "type": "Feature", "properties": { "field_id": "STORY-12", "source_id": "F070801050903_170", "grid_row": 2, "grid_col": 1, "area_ha": 31.273578922573499, "inside_fraction": 1.0000000000000002 }, "geometry": { "type": "Polygon", "coordinates": [ [ [ -93.555657803043445, 42.034732472070679 ], [ -93.557282818716516, 42.034694196106265 ], [ -93.560376014940431, 42.03469589736882 ], [ -93.560431651419947, 42.034784250375857 ], [ -93.560411285800967, 42.041833308152491 ], [ -93.555665209788003, 42.041880251128241 ], [ -93.555673837519691, 42.035523188766938 ], [ -93.555657803043445, 42.034732472070679 ] ] ] } },
{ "type": "Feature", "properties": { "field_id": "STORY-13", "source_id": "F070801050502_512", "grid_row": 2, "grid_col": 2, "area_ha": 22.24907662521689, "inside_fraction": 1.0 }, "geometry": { "type": "Polygon", "coordinates": [ [ [ -93.462884455362342, 42.038427572872962 ], [ -93.462883830221699, 42.037680560975282 ], [ -93.462892429903164, 42.03461181267572 ], [ -93.467675921232669, 42.034611813394122 ], [ -93.467674173290703, 42.036546983334276 ], [ -93.465259390543181, 42.036568865880049 ], [ -93.465411781843258, 42.037765150079785 ], [ -93.46539911709128, 42.037764696937558 ], [ -93.465462388671071, 42.037956640887018 ], [ -93.466326512284908, 42.037967291676217 ], [ -93.466330570097128, 42.03852716911927 ], [ -93.466154350287724, 42.038607583489352 ], [ -93.4657860486179, 42.038845033010688 ], [ -93.465546102905535, 42.039130218524669 ], [ -93.465543423874806, 42.039352457638977 ], [ -93.465674195192491, 42.039535354828942 ], [ -93.465792230250941, 42.039691446431256 ], [ -93.465859208094159, 42.040338999618548 ], [ -93.465892976930348, 42.040750804441892 ], [ -93.466074819823461, 42.041729963650475 ], [ -93.464586931026773, 42.041727763408282 ], [ -93.463000766560683, 42.041719474772549 ], [ -93.462891694781874, 42.04165918279859 ], [ -93.462884455362342, 42.038427572872962 ] ] ] } },
{ "type": "Feature", "properties": { "field_id": "STORY-14", "source_id": "F070801050604_32", "grid_row": 2, "grid_col": 3, "area_ha": 29.517011738881962, "inside_fraction": 1.0 }, "geometry": { "type": "Polygon", "coordinates": [ [ [ -93.36939464510489, 42.034375790603505 ], [ -93.369385084506433, 42.037051787375582 ], [ -93.369384661637497, 42.037177034185447 ], [ -93.369368696736046, 42.039704811394991 ], [ -93.367294340985765, 42.039719988763437 ], [ -93.366391405026263, 42.039718614775509 ], [ -93.366389413339377, 42.039596977930337 ], [ -93.366296025064173, 42.038344414842527 ], [ -93.365272921848515, 42.038284710259539 ], [ -93.364070681657381, 42.038244127756094 ], [ -93.36225696213009, 42.038160422070689 ], [ -93.362221597328642, 42.03485627584061 ], [ -93.362437014584188, 42.03465141620417 ], [ -93.362435998801786, 42.034472522076584 ], [ -93.362515365246026, 42.034362940007341 ], [ -93.36939464510489, 42.034375790603505 ] ] ] } },
{ "type": "Feature", "properties": { "field_id": "STORY-15", "source_id": "F070801050603_33", "grid_row": 2, "grid_col": 4, "area_ha": 19.355195975967305, "inside_fraction": 1.0 }, "geometry": { "type": "Polygon", "coordinates": [ [ [ -93.27072913813457, 42.034054661290462 ], [ -93.270764370142459, 42.029711745704667 ], [ -93.275462465100063, 42.029707348680972 ], [ -93.275432206311976, 42.034190838380546 ], [ -93.270905764930077, 42.034185722768903 ], [ -93.27072913813457, 42.034054661290462 ] ] ] } },
{ "type": "Feature", "properties": { "field_id": "STORY-16", "source_id": "F070801050901_153", "grid_row": 3, "grid_col": 0, "area_ha": 46.936410474066264, "inside_fraction": 0.99999999999999989 }, "geometry": { "type": "Polygon", "coordinates": [ [ [ -93.658589676906971, 41.965812017161184 ], [ -93.65897674704658, 41.965802212154749 ], [ -93.660130003005051, 41.96587905200829 ], [ -93.66170065600511, 41.966145108977138 ], [ -93.662588631011914, 41.966335557664877 ], [ -93.663100803269927, 41.966388478601431 ], [ -93.663450920246561, 41.966456310847391 ], [ -93.66389192036236, 41.966541278961927 ], [ -93.664564847391787, 41.966770919105649 ], [ -93.665813454913717, 41.967547705437667 ], [ -93.66639840832886, 41.967892066701481 ], [ -93.666751206376006, 41.968215978337504 ], [ -93.667185898704091, 41.968407150307328 ], [ -93.667545335685986, 41.968580212552283 ], [ -93.667948679517821, 41.968677957571579 ], [ -93.668225639237889, 41.968693557418725 ], [ -93.668230213675656, 41.969018139405101 ], [ -93.668274206871686, 41.972127789587503 ], [ -93.658649103963981, 41.972104804707541 ], [ -93.658592681829134, 41.966130772824727 ], [ -93.658589676906971, 41.965812017161184 ] ] ] } },
{ "type": "Feature", "properties": { "field_id": "STORY-17", "source_id": "F070801050903_142", "grid_row": 3, "grid_col": 1, "area_ha": 30.032983190958149, "inside_fraction": 1.0000000000000004 }, "geometry": { "type": "Polygon", "coordinates": [ [ [ -93.569712429089762, 41.96833617906919 ], [ -93.569624159233669, 41.970246346299071 ], [ -93.568609678597042, 41.97018062800533 ], [ -93.568272830863378, 41.970085401517743 ], [ -93.567766912006647, 41.969811058362211 ], [ -93.567527737955714, 41.969733134900942 ], [ -93.56585812719824, 41.96954578738584 ], [ -93.564966610942221, 41.969281059078611 ], [ -93.564034311675144, 41.96873193142639 ], [ -93.563393770835901, 41.968211041329027 ], [ -93.562898177839855, 41.967600442439753 ], [ -93.56261552514249, 41.967097553400514 ], [ -93.561768473670384, 41.965687779515463 ], [ -93.561331346675203, 41.964943408279552 ], [ -93.567174336853171, 41.964910187572045 ], [ -93.569630818616758, 41.964909797319912 ], [ -93.569712429089762, 41.96833617906919 ] ] ] } },
{ "type": "Feature", "properties": { "field_id": "STORY-18", "source_id": "F070801050501_227", "grid_row": 3, "grid_col": 2, "area_ha": 17.579539582973759, "inside_fraction": 0.99999999999999989 }, "geometry": { "type": "Polygon", "coordinates": [ [ [ -93.463198930544962, 41.971881100622006 ], [ -93.463252081417394, 41.968484330885744 ], [ -93.465193507865848, 41.968484596220655 ], [ -93.465312812843322, 41.968483689182506 ], [ -93.465599313113913, 41.968520382566801 ], [ -93.465986213797279, 41.968518812707515 ], [ -93.466189911041681, 41.968525587096174 ], [ -93.466356133695143, 41.96858852640888 ], [ -93.466796622459228, 41.968866681909816 ], [ -93.467462345939566, 41.969300257253117 ], [ -93.467842535368277, 41.969651095450068 ], [ -93.467902602891286, 41.970876353442947 ], [ -93.469612979587211, 41.970867262394819 ], [ -93.470261991165472, 41.971063041050165 ], [ -93.47055536996362, 41.971207269842267 ], [ -93.470696873258177, 41.971297927353291 ], [ -93.470653584452762, 41.971664136244208 ], [ -93.470579472671048, 41.972007594786248 ], [ -93.470453948365858, 41.972102309951239 ], [ -93.463843448745749, 41.972102494725313 ], [ -93.46319546574631, 41.972102499275699 ], [ -93.463198930544962, 41.971881100622006 ] ] ] } },
{ "type": "Feature", "properties": { "field_id": "STORY-19", "source_id": "F070801050604_109", "grid_row": 3, "grid_col": 3, "area_ha": 35.52285619769966, "inside_fraction": 1.0000000000000002 }, "geometry": { "type": "Polygon", "coordinates": [ [ [ -93.367308506353311, 41.964612723282457 ], [ -93.36726095864104, 41.958541534107304 ], [ -93.367678216826576, 41.958274591275028 ], [ -93.36810401920458, 41.958042087427735 ], [ -93.368142102635701, 41.958040002087166 ], [ -93.371946584692239, 41.958714042300528 ], [ -93.371946634176552, 41.95870807058737 ], [ -93.371950865113121, 41.95822988135189 ], [ -93.374366696544044, 41.958284923077635 ], [ -93.374308408096027, 41.960413984287015 ], [ -93.374150611586401, 41.960641972522573 ], [ -93.373875294377683, 41.960734377474466 ], [ -93.373743920170227, 41.960850487649054 ], [ -93.373278013447873, 41.960804952486988 ], [ -93.372895951198785, 41.96098921039345 ], [ -93.371952352486318, 41.960992271279565 ], [ -93.371538622181731, 41.961120731079291 ], [ -93.370863249476685, 41.960939898450228 ], [ -93.370802545358842, 41.961043040906567 ], [ -93.371186606112232, 41.961201939789909 ], [ -93.371585262632266, 41.961234965778431 ], [ -93.37200017531562, 41.961428076714633 ], [ -93.372254555785005, 41.961380201090478 ], [ -93.37274476617408, 41.96134429460762 ], [ -93.37295054536385, 41.961459309239423 ], [ -93.372997655488192, 41.961653610388879 ], [ -93.372983197222823, 41.961802358399098 ], [ -93.373014904209498, 41.961985271762934 ], [ -93.37301503748742, 41.962008148669369 ], [ -93.372984865042312, 41.962088315728643 ], [ -93.372979515149765, 41.962178544724701 ], [ -93.372988801097804, 41.962763175508563 ], [ -93.372907852363142, 41.964650802857015 ], [ -93.367308506353311, 41.964612723282457 ] ] ] } },
{ "type": "Feature", "properties": { "field_id": "STORY-20", "source_id": "F070801050701_145", "grid_row": 3, "grid_col": 4, "area_ha": 44.551403580027198, "inside_fraction": 0.99999999999999989 }, "geometry": { "type": "Polygon", "coordinates": [ [ [ -93.271951725454585, 41.960758689255215 ], [ -93.272100017532978, 41.958990796388242 ], [ -93.270679329237396, 41.958966070999317 ], [ -93.270710811293739, 41.957209569483538 ], [ -93.276771779212112, 41.957189326843938 ], [ -93.280292384848011, 41.957175237534109 ], [ -93.280290835945351, 41.958586910730467 ], [ -93.280288925302273, 41.960786220827657 ], [ -93.280285009292754, 41.964369705038763 ], [ -93.278087886425183, 41.964386026614456 ], [ -93.273297582202801, 41.960723593882378 ], [ -93.271951725454585, 41.960758689255215 ] ] ] } },
{ "type": "Feature", "properties": { "field_id": "STORY-21", "source_id": "F070801050902_306", "grid_row": 4, "grid_col": 0, "area_ha": 32.186066224793564, "inside_fraction": 0.99999999999999978 }, "geometry": { "type": "Polygon", "coordinates": [ [ [ -93.668970075558732, 41.89977947592071 ], [ -93.661670491686621, 41.899769799929309 ], [ -93.661546989838939, 41.899773005968704 ], [ -93.661508832810824, 41.899772964437744 ], [ -93.660783155172481, 41.899772306363175 ], [ -93.660765396905589, 41.899772291092631 ], [ -93.659313704150506, 41.899770961743769 ], [ -93.659284254516109, 41.896169561319667 ], [ -93.668921541524824, 41.896138693996228 ], [ -93.668970075558732, 41.89977947592071 ] ] ] } },
{ "type": "Feature", "properties": { "field_id": "STORY-22", "source_id": "F070801050902_335", "grid_row": 4, "grid_col": 1, "area_ha": 16.827929743590573, "inside_fraction": 1.0 }, "geometry": { "type": "Polygon", "coordinates": [ [ [ -93.565456631381849, 41.895945441909056 ], [ -93.570558240106152, 41.895908772355469 ], [ -93.57056675976132, 41.896865976422298 ], [ -93.570359309799713, 41.897021410301058 ], [ -93.569960134556268, 41.897129572953617 ], [ -93.56953142709645, 41.897259992990314 ], [ -93.568638953766268, 41.897331137818398 ], [ -93.568249355756564, 41.897458179435937 ], [ -93.567881761524873, 41.897551741368645 ], [ -93.567659318906536, 41.897644592789625 ], [ -93.567593524545615, 41.897778362480594 ], [ -93.567395977369799, 41.898163009638338 ], [ -93.567130275792678, 41.898263910063925 ], [ -93.566914991160431, 41.898056970334778 ], [ -93.566509947812236, 41.89770031091301 ], [ -93.566073396361858, 41.897569010094649 ], [ -93.565917191508632, 41.897578119863219 ], [ -93.565681951234012, 41.897487536386784 ], [ -93.565577457471932, 41.897353913069438 ], [ -93.565465785668081, 41.897246921272135 ], [ -93.565313188076786, 41.897447650453692 ], [ -93.565213606375565, 41.897548223876029 ], [ -93.565192716634797, 41.897670161767572 ], [ -93.565161244228591, 41.897868852570554 ], [ -93.565041787150875, 41.898134158820483 ], [ -93.565018840610605, 41.898249801636972 ], [ -93.564863147210033, 41.898317290389393 ], [ -93.564741446258907, 41.898443001620024 ], [ -93.564527679788284, 41.898570544350981 ], [ -93.564161243935274, 41.898479215203835 ], [ -93.563613502964131, 41.898398502192485 ], [ -93.562875395854391, 41.898251988202013 ], [ -93.562529029615945, 41.898220324153876 ], [ -93.562374116901054, 41.898225848005701 ], [ -93.562032599822601, 41.898307175109117 ], [ -93.561496555819048, 41.898286920614112 ], [ -93.561388986660646, 41.898241692306982 ], [ -93.560934091479524, 41.896997106443735 ], [ -93.560894465226113, 41.895967815450817 ], [ -93.563343957302976, 41.895955825589553 ], [ -93.56504328231857, 41.895947476067875 ], [ -93.565456631381849, 41.895945441909056 ] ] ] } },
{ "type": "Feature", "properties": { "field_id": "STORY-23", "source_id": "F070801050801_380", "grid_row": 4, "grid_col": 2, "area_ha": 61.721063177254287, "inside_fraction": 0.99999999999999978 }, "geometry": { "type": "Polygon", "coordinates": [ [ [ -93.470094170057649, 41.899301399899571 ], [ -93.470085026860573, 41.898524817885409 ], [ -93.467819278287635, 41.898534070507431 ], [ -93.467828166728495, 41.899299215349046 ], [ -93.463650796394731, 41.899315896575317 ], [ -93.463573925665997, 41.899270452176602 ], [ -93.463576822401592, 41.894506691467754 ], [ -93.46359091842892, 41.894088862793822 ], [ -93.463597453884177, 41.892100350516806 ], [ -93.473102906550096, 41.892078174482712 ], [ -93.47310572867022, 41.894646146140737 ], [ -93.473110839712831, 41.899291406702829 ], [ -93.470094170057649, 41.899301399899571 ] ] ] } },
{ "type": "Feature", "properties": { "field_id": "STORY-24", "source_id": "F070801050801_165", "grid_row": 4, "grid_col": 3, "area_ha": 29.884824566933048, "inside_fraction": 1.0000000000000004 }, "geometry": { "type": "Polygon", "coordinates": [ [ [ -93.367461634078396, 41.895063300291433 ], [ -93.367459148905013, 41.894644472989242 ], [ -93.368107890924875, 41.894652663422356 ], [ -93.368104709153982, 41.893945340921348 ], [ -93.368090715942614, 41.893639100046286 ], [ -93.367453242906777, 41.893649743776976 ], [ -93.367452141534301, 41.893461927508945 ], [ -93.367445243070208, 41.892203562377844 ], [ -93.370802658856931, 41.892205942924505 ], [ -93.376952119692021, 41.892210047208131 ], [ -93.376980366851356, 41.895695771213653 ], [ -93.372124611886463, 41.895685191782341 ], [ -93.370957438327807, 41.895681259592294 ], [ -93.367465108102564, 41.895669419986525 ], [ -93.367461634078396, 41.895063300291433 ] ] ] } },
{ "type": "Feature", "properties": { "field_id": "STORY-25", "source_id": "F070801050702_99", "grid_row": 4, "grid_col": 4, "area_ha": 26.307387134889169, "inside_fraction": 1.0 }, "geometry": { "type": "Polygon", "coordinates": [ [ [ -93.272172611920354, 41.891786092747985 ], [ -93.272167254623795, 41.89052397874633 ], [ -93.272157643017735, 41.888259747148048 ], [ -93.272273822618885, 41.88823576573553 ], [ -93.272527455208788, 41.888227273842396 ], [ -93.280128325310926, 41.888233105825613 ], [ -93.280143210057233, 41.889791673858426 ], [ -93.28016693898762, 41.891826105663725 ], [ -93.272172611920354, 41.891786092747985 ] ] ] } }
]
}
